CUTE-1 (CO-55)          
1 27844U 03031E   26159.74789500  .00000310  00000+0  15325-3 0  9997
2 27844  98.6735 168.4129 0008975 203.1783 156.8992 14.24330726190472
CUBESAT XI-IV (CO-57)   
1 27848U 03031J   26158.95900341  .00000277  00000+0  14071-3 0  9990
2 27848  98.6766 167.3539 0008515 225.8669 134.1810 14.23616071190069
CUBESAT XI-V            
1 28895U 05043F   26158.95798337  .00001615  00000+0  26180-3 0  9999
2 28895  98.2976 314.3867 0013088 231.5140 128.4894 14.72607812100390
CUTE-1.7+APD II (CO-65) 
1 32785U 08021C   26159.76336008  .00006172  00000+0  39011-3 0  9994
2 32785  97.8271 141.0073 0010357  63.4149 296.8139 15.09373528983922
CANX-2                  
1 32790U 08021H   26159.44895187  .00003114  00000+0  22045-3 0  9995
2 32790  97.8628 139.0578 0012041  76.7159 283.5410 15.05552042983494
SEEDS II (CO-66)        
1 32791U 08021J   26159.51727283  .00017776  00000+0  56914-3 0  9996
2 32791  97.7521 157.0026 0002394  30.3483 329.7896 15.32455800985969
SWISSCUBE               
1 35932U 09051B   26159.00067640  .00001155  00000+0  23775-3 0  9991
2 35932  98.4042  66.7288 0005474 236.3791 123.6888 14.62465103887819
BEESAT-1                
1 35933U 09051C   26159.82678422  .00000832  00000+0  17692-3 0  9990
2 35933  98.3972  67.2222 0003912 250.2428 109.8351 14.61707311887968
ITUPSAT1                
1 35935U 09051E   26158.98819542  .00000873  00000+0  19037-3 0  9998
2 35935  98.4056  65.5723 0006074 268.4530  91.5974 14.60427678887397
TISAT 1                 
1 36799U 10035E   26159.81960296  .00020138  00000+0  66607-3 0  9998
2 36799  98.0700 105.6282 0000185 170.3248 189.7995 15.31390446866423
AEROCUBE 4.5A           
1 38767U 12048K   26159.81197117  .00310070  42201-4  10268-2 0  9997
2 38767  64.6263  57.4159 0019618 216.4522 143.5303 15.89790114371328
STRAND-1                
1 39090U 13009E   26159.77100359  .00000307  00000+0  11756-3 0  9991
2 39090  98.3921 340.2126 0007427 254.1198 105.9170 14.37158481695851
BRITE-AUSTRIA           
1 39091U 13009F   26159.78024867  .00000187  00000+0  78153-4 0  9993
2 39091  98.3994 339.4243 0008960 264.9096  95.1068 14.36538871695840
NEE-01 PEGASO           
1 39151U 13018B   26159.35571900  .00003217  00000+0  31012-3 0  9997
2 39151  98.1214 303.2151 0012466 186.8479 173.2571 14.93619595709388
POPACS 2                
1 39269U 13055E   26159.72097926  .00012625  00000+0  21517-3 0  9992
2 39269  80.9909 153.8824 0417103 220.9912 135.9260 14.91009091661955
POPACS 3                
1 39270U 13055F   26159.52964872  .00010683  00000+0  25137-3 0  9999
2 39270  81.0011 238.5709 0552877  96.3321 270.1114 14.55959449637294
ZACUBE-1 (TSHEPISOSAT)  
1 39417U 13066B   26159.80860692  .00004176  00000+0  32547-3 0  9993
2 39417  97.8093 122.1001 0040039 277.1719  82.4953 15.01138401679477
WNISAT-1                
1 39423U 13066H   26159.42694275  .00000741  00000+0  14403-3 0  9995
2 39423  97.7193 309.2055 0161687 259.4066  98.8887 14.58048943665454
TRITON-1                
1 39427U 13066M   26159.85413038  .00002697  00000+0  32717-3 0  9992
2 39427  97.8247  69.8506 0088284 261.5144  97.6056 14.81679912672850
GOMX-1                  
1 39430U 13066Q   26159.81037453  .00002304  00000+0  34917-3 0  9994
2 39430  97.6493   0.8016 0130130 104.1329 257.4378 14.69430163668689
CUBEBUG-2 (LO-74)       
1 39440U 13066AA  26159.82371896  .00004079  00000+0  37815-3 0  9999
2 39440  97.8903 108.7669 0059218  56.2091 304.4748 14.93696969675744
NEE-02 KRYSAOR          
1 39441U 13066AB  26159.79560869  .00002444  00000+0  27071-3 0  9993
2 39441  97.8887  99.0708 0067678  97.0614 263.8304 14.86584116674955
FUNCUBE-1 (AO-73)       
1 39444U 13066AE  26159.43863649  .00005403  00000+0  33773-3 0  9993
2 39444  97.8273 130.7025 0034749 231.4089 128.4026 15.09385885678347
UWE-3                   
1 39446U 13066AG  26159.79360539  .00004534  00000+0  39037-3 0  9997
2 39446  97.8687 115.8113 0048794 349.3525  10.6659 14.96958825676324
BRITE-CA1 (TORONTO)     
1 40020U 14033L   26159.34087105  .00000723  00000+0  11645-3 0  9999
2 40020  97.9729 288.4324 0077461 305.8308  53.5720 14.72664800640914
DUCHIFAT-1              
1 40021U 14033M   26159.63885756  .00104418  00000+0  11441-2 0  9999
2 40021  98.0467 217.6113 0004457 130.5310 229.6335 15.62908297654416
NANOSATC-BR1            
1 40024U 14033Q   26159.31855629  .00014012  00000+0  46781-3 0  9999
2 40024  98.0731 190.9224 0003471 188.1992 171.9191 15.31171489652620
QB50P1                  
1 40025U 14033R   26159.77964730  .00009210  00000+0  45446-3 0  9995
2 40025  98.0972 170.3368 0007205 249.0996 110.9465 15.18133831651753
QB50P2                  
1 40032U 14033Y   26159.51445619  .00006573  00000+0  35525-3 0  9991
2 40032  98.0757 155.8557 0007088 191.3042 168.8030 15.15049271651357
PERSEUS-M2              
1 40037U 14033AD  26159.83338880  .00001426  00000+0  13419-3 0  9992
2 40037  97.9971 110.2045 0011318 335.9387  24.1303 14.95490501649531
