OBJECT_NAME,OBJECT_ID,EPOCH,MEAN_MOTION,ECCENTRICITY,INCLINATION,RA_OF_ASC_NODE,ARG_OF_PERICENTER,MEAN_ANOMALY,EPHEMERIS_TYPE,CLASSIFICATION_TYPE,NORAD_CAT_ID,ELEMENT_SET_NO,REV_AT_EPOCH,BSTAR,MEAN_MOTION_DOT,MEAN_MOTION_DDOT
CUTE-1 (CO-55),2003-031E,2026-06-08T17:56:58.128000,14.24330726,.0008975,98.6735,168.4129,203.1783,156.8992,0,U,27844,999,19047,.15325E-3,.31E-5,0
CUBESAT XI-IV (CO-57),2003-031J,2026-06-07T23:00:57.894624,14.23616071,.00085151,98.6766,167.3539,225.8669,134.1810,0,U,27848,999,19006,.14070546E-3,.277E-5,0
CUBESAT XI-V,2005-043F,2026-06-07T22:59:29.763168,14.72607812,.00130883,98.2976,314.3867,231.5140,128.4894,0,U,28895,999,10039,.26180301E-3,.1615E-4,0
CUTE-1.7+APD II (CO-65),2008-021C,2026-06-08T18:19:14.310912,15.09373528,.0010357,97.8271,141.0073,63.4149,296.8139,0,U,32785,999,98392,.39011E-3,.6172E-4,0
CANX-2,2008-021H,2026-06-08T10:46:29.441568,15.05552042,.00120412,97.8628,139.0578,76.7159,283.5410,0,U,32790,999,98349,.22045059E-3,.3114E-4,0
SEEDS II (CO-66),2008-021J,2026-06-08T12:24:52.372512,15.32455800,.00023947,97.7521,157.0026,30.3483,329.7896,0,U,32791,999,98596,.5691426E-3,.17776E-3,0
SWISSCUBE,2009-051B,2026-06-08T00:00:58.440960,14.62465103,.00054748,98.4042,66.7288,236.3791,123.6888,0,U,35932,999,88781,.23775073E-3,.1155E-4,0
BEESAT-1,2009-051C,2026-06-08T19:50:34.156608,14.61707311,.0003912,98.3972,67.2222,250.2428,109.8351,0,U,35933,999,88796,.17692E-3,.832E-5,0
ITUPSAT1,2009-051E,2026-06-07T23:43:00.084288,14.60427678,.00060745,98.4056,65.5723,268.4530,91.5974,0,U,35935,999,88739,.1903704E-3,.873E-5,0
TISAT 1,2010-035E,2026-06-08T19:40:13.695744,15.31390446,.0000185,98.0700,105.6282,170.3248,189.7995,0,U,36799,999,86642,.66607E-3,.20138E-3,0
AEROCUBE 4.5A,2012-048K,2026-06-08T19:29:14.309088,15.89790114,.0019618,64.6263,57.4159,216.4522,143.5303,0,U,38767,999,37132,.10268E-2,.31007E-2,.42201E-4
STRAND-1,2013-009E,2026-06-08T18:30:14.710176,14.37158481,.0007427,98.3921,340.2126,254.1198,105.9170,0,U,39090,999,69585,.11756E-3,.307E-5,0
BRITE-AUSTRIA,2013-009F,2026-06-08T18:43:33.485088,14.36538871,.000896,98.3994,339.4243,264.9096,95.1068,0,U,39091,999,69584,.78153E-4,.187E-5,0
NEE-01 PEGASO,2013-018B,2026-06-08T08:32:14.121600,14.93619595,.00124663,98.1214,303.2151,186.8479,173.2571,0,U,39151,999,70938,.31012323E-3,.3217E-4,0
POPACS 2,2013-055E,2026-06-08T17:18:12.608064,14.91009091,.0417103,80.9909,153.8824,220.9912,135.9260,0,U,39269,999,66195,.21517E-3,.12625E-3,0
POPACS 3,2013-055F,2026-06-08T12:42:41.649408,14.55959449,.05528779,81.0011,238.5709,96.3321,270.1114,0,U,39270,999,63729,.25136938E-3,.10683E-3,0
ZACUBE-1 (TSHEPISOSAT),2013-066B,2026-06-08T19:24:23.637888,15.01138401,.0040039,97.8093,122.1001,277.1719,82.4953,0,U,39417,999,67947,.32547E-3,.4176E-4,0
WNISAT-1,2013-066H,2026-06-08T10:14:47.853600,14.58048943,.01616878,97.7193,309.2055,259.4066,98.8887,0,U,39423,999,66545,.14403287E-3,.741E-5,0
TRITON-1,2013-066M,2026-06-08T20:29:56.864832,14.81679912,.0088284,97.8247,69.8506,261.5144,97.6056,0,U,39427,999,67285,.32717E-3,.2697E-4,0
GOMX-1,2013-066Q,2026-06-08T19:26:56.359392,14.69430163,.013013,97.6493,0.8016,104.1329,257.4378,0,U,39430,999,66868,.34917E-3,.2304E-4,0
CUBEBUG-2 (LO-74),2013-066AA,2026-06-08T19:46:09.318144,14.93696969,.0059218,97.8903,108.7669,56.2091,304.4748,0,U,39440,999,67574,.37815E-3,.4079E-4,0
NEE-02 KRYSAOR,2013-066AB,2026-06-08T19:05:40.590816,14.86584116,.0067678,97.8887,99.0708,97.0614,263.8304,0,U,39441,999,67495,.27071E-3,.2444E-4,0
FUNCUBE-1 (AO-73),2013-066AE,2026-06-08T10:31:38.192736,15.09385885,.00347495,97.8273,130.7025,231.4089,128.4026,0,U,39444,999,67834,.33773088E-3,.5403E-4,0
UWE-3,2013-066AG,2026-06-08T19:02:47.505696,14.96958825,.0048794,97.8687,115.8113,349.3525,10.6659,0,U,39446,999,67632,.39037E-3,.4534E-4,0
BRITE-CA1 (TORONTO),2014-033L,2026-06-08T08:10:51.258720,14.72664800,.0077461,97.9729,288.4324,305.8308,53.5720,0,U,40020,999,64091,.1164457E-3,.723E-5,0
DUCHIFAT-1,2014-033M,2026-06-08T15:19:57.293184,15.62908297,.0004457,98.0467,217.6113,130.5310,229.6335,0,U,40021,999,65441,.11441E-2,.104418E-2,0
NANOSATC-BR1,2014-033Q,2026-06-08T07:38:43.263456,15.31171489,.0003471,98.0731,190.9224,188.1992,171.9191,0,U,40024,999,65262,.46781226E-3,.14012E-3,0
QB50P1,2014-033R,2026-06-08T18:42:41.526720,15.18133831,.0007205,98.0972,170.3368,249.0996,110.9465,0,U,40025,999,65175,.45446E-3,.921E-4,0
QB50P2,2014-033Y,2026-06-08T12:20:49.014816,15.15049271,.00070883,98.0757,155.8557,191.3042,168.8030,0,U,40032,999,65135,.35524846E-3,.6573E-4,0
PERSEUS-M2,2014-033AD,2026-06-08T20:00:04.792320,14.95490501,.0011318,97.9971,110.2045,335.9387,24.1303,0,U,40037,999,64953,.13419E-3,.1426E-4,0
